{
  "norad_id": 53627,
  "name": "STARLINK-4595",
  "history": [
    {
      "epoch": "2026-03-28T14:22:39.322272",
      "apogee_km": 541.0490902479696,
      "perigee_km": 538.7412347185655,
      "latitude_deg": 14.214909803688734,
      "longitude_deg": -39.78964192001149,
      "semi_major_axis_km": 6918.032162483268,
      "eccentricity": 0.0001668,
      "inclination_deg": 53.2169,
      "raan_deg": 148.9519,
      "arg_perigee_deg": 94.9437,
      "mean_anomaly_deg": 265.1746,
      "mean_motion_rev_day": 15.08790347
    }
  ]
}